{"fetched_at":"2026-03-30T09:12:31Z","count":15922,"tles":[{"name":"STARLINK-35796","line1":"1 66541U 25265AB  26087.92291850  .00031668  00000+0  11548-2 0  9995","line2":"2 66541  43.0062 169.4227 0001384 294.0843  65.9864 15.27597322 20054","category":"Starlink"}]}